[{"OBJECT_NAME":"STARLINK-3204","OBJECT_ID":"2021-115AM","EPOCH":"2026-03-09T11:37:56.995680","MEAN_MOTION":15.08833857,"ECCENTRICITY":0.00013375,"INCLINATION":53.2168,"RA_OF_ASC_NODE":140.0392,"ARG_OF_PERICENTER":100.259,"MEAN_ANOMALY":259.8553,"EPHEMERIS_TYPE":0,"CLASSIFICATION_TYPE":"U","NORAD_CAT_ID":49759,"ELEMENT_SET_NO":999,"REV_AT_EPOCH":23564,"BSTAR":8.113884e-6,"MEAN_MOTION_DOT":-1.59e-6,"MEAN_MOTION_DDOT":0},{"OBJECT_NAME":"OBJECT G","OBJECT_ID":"2025-292G","EPOCH":"2026-03-09T22:41:34.708704","MEAN_MOTION":15.05879657,"ECCENTRICITY":0.00150455,"INCLINATION":97.6425,"RA_OF_ASC_NODE":145.7524,"ARG_OF_PERICENTER":352.95,"MEAN_ANOMALY":7.1513,"EPHEMERIS_TYPE":0,"CLASSIFICATION_TYPE":"U","NORAD_CAT_ID":66999,"ELEMENT_SET_NO":999,"REV_AT_EPOCH":1351,"BSTAR":0.00047153864,"MEAN_MOTION_DOT":6.807e-5,"MEAN_MOTION_DDOT":0}]
